2022-155C               
1 54253U 22155C   23177.08850943  .00009306  00000+0  52622-3 0  9998
2 54253  97.5447 283.6490 0012202 237.9449 122.0598 15.13235347 33494
2022-155D               
1 54254U 22155D   23177.08011183  .00009212  00000+0  52365-3 0  9994
2 54254  97.5446 283.6570 0012927 238.8105 121.1859 15.13041306 33508
2022-155E               
1 54255U 22155E   23177.12245470  .00009993  00000+0  56953-3 0  9991
2 54255  97.5414 283.6729 0014011 238.0190 121.9679 15.12912962 33515
EUTELSAT 10B            
1 54259U 22157A   23176.67638917  .00000024  00000+0  00000+0 0  9992
2 54259   0.0358  96.0310 0002624 354.4612  68.1489  1.00273822  2149
EOS-6 (OCEANSAT-3)      
1 54361U 22158A   23177.06976142  .00000536  00000+0  15941-3 0  9998
2 54361  98.3531 273.9259 0001503  99.9899 260.1463 14.47000271 30628
2022-158B               
1 54362U 22158B   23177.09404418  .00006996  00000+0  33016-3 0  9993
2 54362  97.4596 274.4406 0021880 229.7308 130.2014 15.19555411 32125
THYBOLT-1               
1 54363U 22158C   23177.02460841  .00027965  00000+0  98182-3 0  9993
2 54363  97.4436 275.6457 0009133 231.4895 128.5527 15.29334023 32232
THYBOLT-2               
1 54364U 22158D   23176.96542411  .00027722  00000+0  97698-3 0  9992
2 54364  97.4436 275.5709 0009094 231.8464 128.1957 15.29212375 32221
INS-2B                  
1 54365U 22158E   23177.09200815  .00027204  00000+0  96638-3 0  9995
2 54365  97.4399 275.5816 0009095 241.6244 118.4079 15.28956450 32242
ANAND                   
1 54366U 22158F   23177.03399379  .00020679  00000+0  76982-3 0  9993
2 54366  97.4385 275.3049 0008442 242.9271 117.1107 15.27477652 32220
ASTROCAST-0304          
1 54367U 22158G   23177.04538170  .00015787  00000+0  63892-3 0  9999
2 54367  97.4422 275.1078 0008556 244.5308 115.5045 15.24750733 32198
ASTROCAST-0303          
1 54368U 22158H   23177.03157781  .00012133  00000+0  49151-3 0  9998
2 54368  97.4453 275.1976 0006593 258.9159 101.1338 15.24794079 32201
ASTROCAST-0302          
1 54369U 22158J   23177.08157416  .00011557  00000+0  46855-3 0  9996
2 54369  97.4446 275.2719 0005928 252.2827 107.7764 15.24781414 32215
ASTROCAST-0301          
1 54370U 22158K   23177.06600883  .00008664  00000+0  35212-3 0  9997
2 54370  97.4456 275.3129 0007248 266.9930  93.0479 15.24774354 32213
YAOGAN-36 03A           
1 54372U 22160A   23176.92670281  .00021658  00000+0  81873-3 0  9997
2 54372  35.0001 341.7762 0008640 335.8092  24.2218 15.26049300 32138
YAOGAN-36 03B           
1 54374U 22160C   23176.92930170  .00015438  00000+0  58972-3 0  9998
2 54374  34.9999 341.8006 0009543  11.7078 348.3859 15.25748868 32093
YAOGAN-36 03C           
1 54376U 22160E   23176.93069676  .00014144  00000+0  54147-3 0  9998
2 54376  35.0020 341.8256 0010370 256.7225 103.2334 15.25680672 32133
COSMOS 2564 [GLONASS-M] 
1 54377U 22161A   23176.02809933  .00000041  00000+0  00000+0 0  9994
2 54377  64.7582 228.9447 0010817 224.3280 135.6640  2.13102239  4444
COSMOS 2565             
1 54381U 22163A   23177.11763189 -.00000050  00000+0  18122-4 0  9994
2 54381  67.1455 229.3554 0005858 265.5559  94.4856 13.96674056 28962
COSMOS 2566             
1 54383U 22163C   23177.16446281  .00000002  00000+0  55405-4 0  9993
2 54383  67.1408 228.5946 0012195 230.5187 129.4820 13.97375892 28674
2022-164A               
1 54588U 22164A   23177.09238762  .00000417  00000+0  13233-3 0  9998
2 54588  98.3346 205.8732 0010475  37.2497 322.9419 14.44753038 29034
GAOFEN 5-01A            
1 54640U 22165A   23177.12075950  .00000826  00000+0  19035-3 0  9990
2 54640  98.1362 116.0487 0002106 121.0357 239.1049 14.57795882 29055
CZ-2D R/B               
1 54641U 22165B   23177.10792401  .00000941  00000+0  17987-3 0  9998
2 54641  98.0478 116.1861 0035413  34.2229 326.1247 14.65787508 29197
ONEWEB-0527             
1 54642U 22166A   23176.33799091  .00000071  00000+0  13948-3 0  9993
2 54642  87.9244 100.6566 0001845  77.8210 282.3130 13.21824393 28278
ONEWEB-0528             
1 54643U 22166B   23176.34433876  .00000099  00000+0  20888-3 0  9992
2 54643  87.9193 100.6169 0002012  75.1800 284.9557 13.21823649 28289
ONEWEB-0539             
1 54644U 22166C   23176.30644986  .00000143  00000+0  31554-3 0  9997
2 54644  87.9242 100.6110 0002409  74.5828 285.5571 13.21828819 28270
ONEWEB-0540             
1 54645U 22166D   23176.30016076  .00000052  00000+0  94174-4 0  9998
2 54645  87.9243 100.6355 0002290  75.2947 284.8441 13.21827680 28285
ONEWEB-0542             
1 54646U 22166E   23176.08778228  .00000088  00000+0  18238-3 0  9993
2 54646  87.9243 100.6553 0002602  84.3343 275.8087 13.21824340 28257
ONEWEB-0545             
1 54647U 22166F   23176.35691188  .00000154  00000+0  34028-3 0  9992
2 54647  87.9244 100.6399 0002701  73.9276 286.2156 13.21823834 28267
ONEWEB-0580             
1 54648U 22166G   23177.08866006  .00003053  00000+0  73601-2 0  9997
2 54648  87.9176 100.4576 0002693  89.9589 270.1853 13.21809086 28394
ONEWEB-0582             
1 54649U 22166H   23176.29593168  .00000154  00000+0  34033-3 0  9992
2 54649  87.9244 100.6467 0002317  70.7633 289.3751 13.21829085 28270
ONEWEB-0583             
1 54650U 22166J   23176.30854772  .00000090  00000+0  18754-3 0  9998
2 54650  87.9244 100.6509 0001672  72.7789 287.3527 13.21829123 28290
ONEWEB-0584             
1 54651U 22166K   23176.70807326  .00000039  00000+0  62568-4 0  9992
2 54651  87.9196 100.5347 0002401  83.6304 276.5103 13.21824303 28320
ONEWEB-0585             
1 54652U 22166L   23176.35272699  .00000245  00000+0  56186-3 0  9990
2 54652  87.9242 100.6027 0002029  75.0609 285.0750 13.21826352 28282
ONEWEB-0586             
1 54653U 22166M   23177.04660050  .00000075  00000+0  14985-3 0  9992
2 54653  87.9243 100.5214 0002414  80.0853 280.0553 13.21827533 28374
ONEWEB-0587             
1 54654U 22166N   23177.05824118  .00005592  00000+0  13504-1 0  9994
2 54654  87.9288 100.4363 0001806  88.9521 271.1820 13.21808342 28523
ONEWEB-0589             
1 54655U 22166P   23177.12017865  .00000114  00000+0  24380-3 0  9997
2 54655  87.9246 100.4537 0003072  89.8103 270.3382 13.21823021 28406
ONEWEB-0590             
1 54656U 22166Q   23176.08567571  .00000089  00000+0  18430-3 0  9996
2 54656  87.9257 100.6574 0001817  82.6759 277.4582 13.21821530 28240
ONEWEB-0591             
1 54657U 22166R   23176.32536741  .00000025  00000+0  29121-4 0  9999
2 54657  87.9247 100.6140 0002184  82.5292 277.6090 13.21829437 28305
ONEWEB-0592             
1 54658U 22166S   23176.85738074  .00007500  00000+0  18123-1 0  9993
2 54658  87.9320 100.4918 0002126  86.4884 273.6493 13.21788228 28265
ONEWEB-0593             
1 54659U 22166T   23176.04781608 -.00000150  00000+0 -39507-3 0  9993
2 54659  87.9243 100.6648 0002316  83.5023 276.6374 13.21825545 28261
ONEWEB-0594             
1 54660U 22166U   23176.52092914 -.00000042  00000+0 -13243-3 0  9992
2 54660  87.9318 100.5507 0002091  72.5876 287.5486 13.21823139 28333
ONEWEB-0595             
1 54661U 22166V   23177.02767952 -.00000177  00000+0 -46012-3 0  9999
2 54661  87.9229 100.4647 0001859  76.4211 283.7130 13.21826952 28381
ONEWEB-0596             
1 54662U 22166W   23176.09407983  .00000031  00000+0  43328-4 0  9996
2 54662  87.9197 100.6528 0002332  88.9997 271.1404 13.21828673 28266
ONEWEB-0597             
1 54663U 22166X   23177.05920492 -.00000402  00000+0 -10038-2 0  9993
2 54663  87.9188 100.4611 0002472  79.2659 280.8753 13.21825294 28395
ONEWEB-0600             
1 54664U 22166Y   23176.51040629  .00000061  00000+0  11591-3 0  9994
2 54664  87.9245 100.6126 0002348  78.0791 282.0606 13.21828719 28294
ONEWEB-0601             
1 54665U 22166Z   23176.58334491  .00018934  00000+0  45731-1 0  9994
2 54665  87.9218 100.5529 0002365  92.9513 289.1715 13.21806117 28485
ONEWEB-0602             
1 54666U 22166AA  23176.09198804 -.00000029  00000+0 -10073-3 0  9998
2 54666  87.9343 100.6506 0002293  83.0719 277.0676 13.21824899 28276
ONEWEB-0603             
1 54667U 22166AB  23176.70175961  .00000057  00000+0  10716-3 0  9999
2 54667  87.9179 100.5336 0002670  82.2785 277.8652 13.21826294 28270
ONEWEB-0604             
1 54668U 22166AC  23177.06763860  .00000088  00000+0  18108-3 0  9998
2 54668  87.9348 100.4557 0002804  77.3707 282.7740 13.21826255 28293
ONEWEB-0605             
1 54669U 22166AD  23176.30437160  .00000138  00000+0  30301-3 0  9991
2 54669  87.9200 100.6590 0002366  91.8473 268.2932 13.21826886 28263
ONEWEB-0606             
1 54670U 22166AE  23177.16667824  .00083688  00000+0  20085+0 0  9995
2 54670  87.9271 100.4233 0001903  79.2220 316.9832 13.21787996 28438
ONEWEB-0607             
1 54671U 22166AF  23176.29174333  .00000135  00000+0  29496-3 0  9992
2 54671  87.9330 100.5991 0002359  82.3888 277.7514 13.21828450 28283
ONEWEB-0608             
1 54672U 22166AG  23177.05501682  .00000078  00000+0  15785-3 0  9991
2 54672  87.9185 100.4931 0002640  89.2540 270.8897 13.21834006 28393
ONEWEB-0610             
1 54673U 22166AH  23177.03608831 -.00003219  00000+0 -78257-2 0  9998
2 54673  87.9171 100.4965 0002999  84.2857 275.8618 13.21843737 28307
ONEWEB-0611             
1 54674U 22166AJ  23176.34852283  .00000119  00000+0  25606-3 0  9999
2 54674  87.9244 100.6029 0001757  65.5825 294.5492 13.21827233 28200
ONEWEB-0612             
1 54675U 22166AK  23176.51253009  .00000020  00000+0  16119-4 0  9991
2 54675  87.9236 100.5698 0002302  91.8141 268.3256 13.21823859 28211
ONEWEB-0615             
1 54676U 22166AL  23176.49360981  .00000033  00000+0  48778-4 0  9997
2 54676  87.9247 100.5731 0002393  79.1752 280.9651 13.21827714 28223
ONEWEB-0655             
1 54677U 22166AM  23176.69546944 -.00000087  00000+0 -24164-3 0  9998
2 54677  87.9253 100.5388 0002200  82.4818 277.6565 13.21827599 28246
